STARLINK-5175           
1 54079U 22136AE  22305.58334491 -.00097173  00000+0 -69338-3 0  9998
2 54079  53.2165  88.6333 0001538  48.5988 335.0576 15.73285798  2397
STARLINK-5160           
1 54080U 22136AF  22305.58334491  .00040977  00000+0  29481-3 0  9993
2 54080  53.2163  88.6370 0001552  63.5940 318.0972 15.73211385  2391
STARLINK-5165           
1 54081U 22136AG  22305.25001157 -.00252445  00000+0 -18334-2 0  9999
2 54081  53.2173  90.2768 0001177  46.8936 248.9006 15.73394213  2341
STARLINK-5210           
1 54082U 22136AH  22305.50001157 -.00070393  00000+0 -50005-3 0  9990
2 54082  53.2166  89.0437 0001377  53.4823 218.5394 15.73259610  2382
STARLINK-5178           
1 54083U 22136AJ  22305.58334491 -.00067019  00000+0 -47597-3 0  9992
2 54083  53.2162  88.6258 0001271  47.6166 339.6304 15.73245737  2395
STARLINK-5183           
1 54084U 22136AK  22305.58334491  .00039347  00000+0  28328-3 0  9995
2 54084  53.2162  88.6296 0001909  51.9748 333.2445 15.73213431  2392
STARLINK-5166           
1 54085U 22136AL  22305.58334491 -.00079087  00000+0 -56244-3 0  9991
2 54085  53.2161  88.6243 0001475  56.7034 331.1362 15.73279921  2383
STARLINK-5211           
1 54086U 22136AM  22305.58334491 -.00074826  00000+0 -53114-3 0  9991
2 54086  53.2164  88.6284 0001835 313.1461  72.8544 15.73300100  2381
STARLINK-5184           
1 54087U 22136AN  22305.58334491 -.00049252  00000+0 -34762-3 0  9995
2 54087  53.2164  88.6238 0001663  33.2360 355.1700 15.73261569  2384
STARLINK-5153           
1 54088U 22136AP  22305.58334491 -.00077924  00000+0 -55399-3 0  9992
2 54088  53.2164  88.6268 0001534  49.0613 337.6011 15.73281079  2389
STARLINK-5143           
1 54089U 22136AQ  22305.58334491 -.00037091  00000+0 -26043-3 0  9998
2 54089  53.2160  88.6207 0001454  60.4381 329.8024 15.73251779  2380
STARLINK-5177           
1 54090U 22136AR  22305.58334491 -.00028962  00000+0 -20214-3 0  9991
2 54090  53.2162  88.6202 0001581  53.9969 335.6362 15.73256704  2382
STARLINK-5221           
1 54091U 22136AS  22305.58334491  .00041079  00000+0  29548-3 0  9993
2 54091  53.2168  88.6184 0001837  68.3442 323.4204 15.73215065  2383
STARLINK-5190           
1 54092U 22136AT  22305.50001157 -.00101717  00000+0 -72554-3 0  9999
2 54092  53.2169  89.0349 0001119  50.6078 226.1829 15.73314785  2364
STARLINK-5213           
1 54093U 22136AU  22305.58334491  .00039799  00000+0  28707-3 0  9997
2 54093  53.2162  88.6155 0001906  66.2572 326.1596 15.73164716  2385
STARLINK-5219           
1 54094U 22136AV  22305.58334491  .00040764  00000+0  29334-3 0  9999
2 54094  53.2169  88.6205 0000830  30.6102   0.0629 15.73208910  2388
STARLINK-5193           
1 54095U 22136AW  22305.25001157 -.00185525  00000+0 -13397-2 0  9992
2 54095  53.2175  90.2583 0001191  52.2149 252.5810 15.73323358  2320
STARLINK-5188           
1 54096U 22136AX  22305.58334491 -.00077643  00000+0 -55188-3 0  9995
2 54096  53.2164  88.6176 0001299  49.5664 341.8105 15.73285338  2388
STARLINK-5197           
1 54097U 22136AY  22305.58334491 -.00339327  00000+0 -22584-2 0  9999
2 54097  53.2172  88.5927 0000687  67.3629 336.1818 15.75650411  2388
STARLINK-5217           
1 54098U 22136AZ  22305.58334491 -.00093242  00000+0 -66451-3 0  9995
2 54098  53.2167  88.6133 0001351  55.6949 338.6607 15.73298039  2382
STARLINK-5198           
1 54099U 22136BA  22305.58334491  .00039760  00000+0  28665-3 0  9994
2 54099  53.2165  88.6086 0000778  26.2787   9.7372 15.73176873  2380
STARLINK-5185           
1 54100U 22136BB  22305.58334491 -.00108652  00000+0 -77647-3 0  9990
2 54100  53.2164  88.6142 0001235  48.9141 344.2655 15.73298772  2383
STARLINK-5204           
1 54101U 22136BC  22305.58334491 -.01311020  00000+0 -10454-1 0  9998
2 54101  53.2168  88.6028 0001074  38.7808 359.3905 15.73184700  2389
STARLINK-5179           
1 54102U 22136BD  22305.58334491 -.00074216  00000+0 -52668-3 0  9996
2 54102  53.2161  88.6086 0001226  49.2109 346.3512 15.73304356  2388
STARLINK-5200           
1 54103U 22136BE  22305.58334491 -.00046630  00000+0 -32843-3 0  9999
2 54103  53.2158  88.6040 0001296  56.3502 341.0130 15.73287023  2387
STARLINK-5203           
1 54104U 22136BF  22305.58334491 -.00079180  00000+0 -56255-3 0  9999
2 54104  53.2166  88.6045 0001415  52.3751 345.5617 15.73303177  2385
FALCON 9 DEB            
1 54105U 22136BG  22305.51480642  .01852734  11763-4  97727-3 0  9998
2 54105  53.2186  87.4802 0042578  82.8262 277.7615 16.17024308  1924
FALCON 9 DEB            
1 54106U 22136BH  22305.51124807  .01732480  11763-4  92601-3 0  9998
2 54106  53.2114  87.4468 0039328  84.1343 276.4177 16.17195234  1924
FALCON 9 DEB            
1 54107U 22136BJ  22305.50158300  .01854356  11815-4  88043-3 0  9993
2 54107  53.2153  87.3733 0036727  76.1890 284.3232 16.18922409  1923
FALCON 9 DEB            
1 54108U 22136BK  22305.49923235  .02095666  11850-4  89814-3 0  9997
2 54108  53.2161  87.3582 0035738  76.9698 283.5329 16.20258480  1922
COSMOS 2561             
1 54109U 22137A   22304.92693712  .00018471  00000+0  31833-3 0  9995
2 54109  97.0756  24.8354 0007871 224.2263 135.8361 15.51065772  1563
COSMOS 2562             
1 54110U 22137B   22304.92215156  .00019168  00000+0  30873-3 0  9996
2 54110  97.0754  24.8419 0011956 246.0769 113.9232 15.52909813  1565
SL-4 R/B                
1 54111U 22137C   22305.52800478  .02642021  23226-5  60780-3 0  9994
2 54111  97.0708  26.3184 0073218  33.1263 327.3772 16.22589173  1723
ONEWEB-0490             
1 54113U 22138A   22305.00002315 -.00009064  00000+0 -93104-3 0  9993
2 54113  87.4291 213.9396 0011301 257.3191  19.6516 14.90579754  2241
ONEWEB-0492             
1 54114U 22138B   22305.58334491  .00061024  00000+0  62394-2 0  9998
2 54114  87.4301 213.7523 0012682 257.0433 255.8773 14.90208853  2331
ONEWEB-0495             
1 54115U 22138C   22305.58334491  .00060682  00000+0  63568-2 0  9992
2 54115  87.4312 213.7600 0013104 275.9311 202.6356 14.89227846  2321
ONEWEB-0497             
1 54116U 22138D   22305.58334491  .00061115  00000+0  62855-2 0  9993
2 54116  87.4319 213.7557 0013254 262.1090 242.3388 14.89966365  2320
ONEWEB-0499             
1 54117U 22138E   22305.58334491  .00060941  00000+0  62241-2 0  9999
2 54117  87.4313 213.7523 0012530 256.7627 257.7842 14.90254726  2338
ONEWEB-0500             
1 54118U 22138F   22305.58334491  .00060136  00000+0  60252-2 0  9996
2 54118  87.4299 213.7455 0009083 256.3953 286.2984 14.91056376  2339
ONEWEB-0501             
1 54119U 22138G   22305.25001157  .00014132  00000+0  14681-2 0  9991
2 54119  87.4280 213.8593 0013697 267.8899 241.9377 14.89767002  2286
ONEWEB-0502             
1 54120U 22138H   22305.25001157  .00014842  00000+0  15034-2 0  9994
2 54120  87.4299 213.8550 0010071 254.8660 290.5434 14.90815423  2283
ONEWEB-0503             
1 54121U 22138J   22305.25001157  .00014575  00000+0  14941-2 0  9994
2 54121  87.4289 213.8593 0012336 258.3470 270.1550 14.90317520  2282
ONEWEB-0504             
1 54122U 22138K   22305.50001157 -.00002524  00000+0 -25856-3 0  9994
2 54122  87.4306 213.7784 0009013 257.1550 195.1654 14.90988171  2319
ONEWEB-0505             
1 54123U 22138L   22305.58334491  .00060774  00000+0  63455-2 0  9998
2 54123  87.4285 213.7523 0013186 271.4007 211.6110 14.89359912  2324
ONEWEB-0506             
1 54124U 22138M   22305.58334491  .00074037  00000+0  77033-2 0  9993
2 54124  87.4303 213.7564 0014650 272.4552 214.6010 14.89412934  2320
ONEWEB-0507             
1 54125U 22138N   22305.25001157  .00014913  00000+0  14911-2 0  9991
2 54125  87.4298 213.8532 0008072 261.3374 302.2627 14.91348717  2283
ONEWEB-0508             
1 54126U 22138P   22305.58334491  .00060693  00000+0  61508-2 0  9998
2 54126  87.4305 213.7505 0011116 254.0479 272.0511 14.90580518  2338
ONEWEB-0509             
1 54127U 22138Q   22305.58334491  .00061209  00000+0  63175-2 0  9995
2 54127  87.4324 213.7571 0013521 264.5502 234.8087 14.89820687  2323
ONEWEB-0510             
1 54128U 22138R   22305.58334491  .00059144  00000+0  58331-2 0  9999
2 54128  87.4293 213.7427 0008192 274.1673 291.1298 14.91698980  2336
ONEWEB-0511             
1 54129U 22138S   22305.58334491  .00060400  00000+0  60850-2 0  9996
2 54129  87.4307 213.7514 0009974 253.3693 281.3029 14.90828225  2339
ONEWEB-0512             
1 54130U 22138T   22305.50001157 -.00001240  00000+0 -13185-3 0  9999
2 54130  87.4275 213.7776 0013075 264.3674 150.0142 14.89899173  2317
ONEWEB-0513             
1 54131U 22138U   22305.58334491 -.00928373  00000+0 -13800+0 0  9993
2 54131  87.4487 213.7718 0008140 262.8935 137.4747 14.78071544  2322
ONEWEB-0514             
1 54132U 22138V   22305.58334491  .00060300  00000+0  60634-2 0  9999
2 54132  87.4300 213.7459 0009628 254.5048 283.0288 14.90907432  2331
ONEWEB-0515             
1 54133U 22138W   22305.25001157  .00043129  00000+0  42798-2 0  9995
2 54133  87.4274 213.8482 0008041 268.2550 300.8758 14.91539259  2280
ONEWEB-0516             
1 54134U 22138X   22305.25001157  .00014813  00000+0  15021-2 0  9993
2 54134  87.4303 213.8574 0010219 254.4183 289.5046 14.90769362  2287
ONEWEB-0517             
1 54135U 22138Y   22305.25001157  .00014652  00000+0  14969-2 0  9995
2 54135  87.4285 213.8585 0011746 257.2528 276.0265 14.90457420  2282
ONEWEB-0518             
1 54136U 22138Z   22305.25001157  .00014427  00000+0  14876-2 0  9993
2 54136  87.4301 213.8606 0012577 262.5760 257.8966 14.90078477  2282
ONEWEB-0519             
1 54137U 22138AA  22304.91668981 -.00054084  00000+0 -55018-2 0  9998
2 54137  87.4304 213.9660 0009002 260.0186 307.6190 14.91142198  1309
ONEWEB-0520             
1 54138U 22138AB  22305.25001157  .00013388  00000+0  13651-2 0  9990
2 54138  87.4314 213.8584 0011365 256.6745 279.4782 14.90539985  2286
